[{"OBJECT_NAME":"STARLINK-3156","OBJECT_ID":"2021-104BC","EPOCH":"2026-03-09T17:33:00.404352","MEAN_MOTION":15.08841576,"ECCENTRICITY":0.00015773,"INCLINATION":53.2172,"RA_OF_ASC_NODE":218.9354,"ARG_OF_PERICENTER":73.0513,"MEAN_ANOMALY":287.0652,"EPHEMERIS_TYPE":0,"CLASSIFICATION_TYPE":"U","NORAD_CAT_ID":49458,"ELEMENT_SET_NO":999,"REV_AT_EPOCH":23878,"BSTAR":-7.5188981e-5,"MEAN_MOTION_DOT":-1.485e-5,"MEAN_MOTION_DDOT":0},{"OBJECT_NAME":"THORAD AGENA D DEB","OBJECT_ID":"1969-082Z","EPOCH":"2026-03-09T07:18:45.871776","MEAN_MOTION":15.11837328,"ECCENTRICITY":0.00204275,"INCLINATION":70.0067,"RA_OF_ASC_NODE":36.7332,"ARG_OF_PERICENTER":221.6463,"MEAN_ANOMALY":138.3149,"EPHEMERIS_TYPE":0,"CLASSIFICATION_TYPE":"U","NORAD_CAT_ID":4157,"ELEMENT_SET_NO":999,"REV_AT_EPOCH":97934,"BSTAR":0.0014373482,"MEAN_MOTION_DOT":0.00024719,"MEAN_MOTION_DDOT":0}]
